ONEWEB-0650             
1 55813U 23029T   23323.49458778  .00000119  00000+0  26548-3 0  9991
2 55813  87.9183 132.2054 0001111  98.8024 261.3234 13.19726392 34823
ONEWEB-0652             
1 55814U 23029U   23323.50588497  .00000277  00000+0  71241-3 0  9991
2 55814  87.8961 116.9539 0001689  91.0970 269.0353 13.14500069 35788
ONEWEB-0653             
1 55815U 23029V   23323.49003592  .00000223  00000+0  56796-3 0  9997
2 55815  87.9038 116.9156 0001680  81.7195 278.4125 13.14501992 35817
ONEWEB-0654             
1 55816U 23029W   23323.48527165  .00000122  00000+0  29477-3 0  9998
2 55816  87.8956 116.9486 0002070  85.6827 274.4539 13.14500999 35834
ONEWEB-0656             
1 55817U 23029X   23323.45687217 -.00000023  00000+0 -88902-4 0  9992
2 55817  87.9159 101.6741 0002327 104.5214 255.6177 13.20782665 36976
ONEWEB-0657             
1 55818U 23029Y   23323.48984930  .00000108  00000+0  23635-3 0  9991
2 55818  87.9182 132.2118 0002188 114.9859 245.1501 13.19724856 34830
ONEWEB-0658             
1 55819U 23029Z   23323.48511454  .00000081  00000+0  16910-3 0  9997
2 55819  87.9162 132.1509 0000832  98.1374 261.9854 13.19724699 34844
ONEWEB-0660             
1 55820U 23029AA  23323.46306440 -.00000721  00000+0 -19793-2 0  9998
2 55820  87.8964 116.9269 0001075  70.3185 289.8061 13.14502883 35811
